start=new Date('2022-04-17T00:00:00.000Z').valueOf();
sats=[{"COUNTRY_CODE":"US","MEAN_MOTION":"15.06386248","MEAN_MOTION_DOT":"-0.00004085","NORAD_CAT_ID":"47636","EPHEMERIS_TYPE":"0","DECAY_DATE":null,"OBJECT_ID":"2021-012S","RCS_SIZE":"LARGE","OBJECT_NAME":"STARLINK-2013","ARG_OF_PERICENTER":"78.1052","CENTER_NAME":"EARTH","MEAN_MOTION_DDOT":"0.0000000000000","REF_FRAME":"TEME","MEAN_ANOMALY":"282.0074","ELEMENT_SET_NO":"999","LAUNCH_DATE":"2021-02-16","TLE_LINE1":"1 47636U 21012S   22106.84714934 -.00004085  00000-0 -25563-3 0  9996","SITE":"AFETR","PERIOD":"95.593","APOAPSIS":"548.103","BSTAR":"-0.00025563000000","FILE":"3404378","ECCENTRICITY":"0.00012240","TIME_SYSTEM":"UTC","PERIAPSIS":"546.408","OBJECT_TYPE":"PAYLOAD","TLE_LINE2":"2 47636  53.0545 319.0130 0001224  78.1052 282.0074 15.06386248 65297","RA_OF_ASC_NODE":"319.0130","CLASSIFICATION_TYPE":"U","INCLINATION":"53.0545","GP_ID":"201389303","MEAN_ELEMENT_THEORY":"SGP4","SEMIMAJOR_AXIS":"6925.391","REV_AT_EPOCH":"6529","EPOCH":"2022-04-16T20:19:53.702976"},{"EPHEMERIS_TYPE":"0","OBJECT_ID":"2021-012T","DECAY_DATE":null,"COUNTRY_CODE":"US","MEAN_MOTION":"15.06375897","NORAD_CAT_ID":"47637","MEAN_MOTION_DOT":"-0.00009277","MEAN_ANOMALY":"307.0646","LAUNCH_DATE":"2021-02-16","ELEMENT_SET_NO":"999","TLE_LINE1":"1 47637U 21012T   22106.88401028 -.00009277  00000-0 -60511-3 0  9998","OBJECT_NAME":"STARLINK-2014","ARG_OF_PERICENTER":"53.0503","RCS_SIZE":"LARGE","REF_FRAME":"TEME","CENTER_NAME":"EARTH","MEAN_MOTION_DDOT":"0.0000000000000","ECCENTRICITY":"0.00017490","OBJECT_TYPE":"PAYLOAD","TLE_LINE2":"2 47637  53.0563 318.8475 0001749  53.0503 307.0646 15.06375897 65822","PERIAPSIS":"546.076","TIME_SYSTEM":"UTC","PERIOD":"95.594","APOAPSIS":"548.499","BSTAR":"-0.00060511000000","SITE":"AFETR","FILE":"3404767","MEAN_ELEMENT_THEORY":"SGP4","EPOCH":"2022-04-16T21:12:58.488192","REV_AT_EPOCH":"6582","SEMIMAJOR_AXIS":"6925.422","GP_ID":"201419615","CLASSIFICATION_TYPE":"U","INCLINATION":"53.0563","RA_OF_ASC_NODE":"318.8475"},{"MEAN_MOTION_DOT":"0.00000684","NORAD_CAT_ID":"47638","COUNTRY_CODE":"US","MEAN_MOTION":"15.06389249","DECAY_DATE":null,"OBJECT_ID":"2021-012U","EPHEMERIS_TYPE":"0","CENTER_NAME":"EARTH","MEAN_MOTION_DDOT":"0.0000000000000","REF_FRAME":"TEME","RCS_SIZE":"LARGE","OBJECT_NAME":"STARLINK-2015","ARG_OF_PERICENTER":"79.6560","TLE_LINE1":"1 47638U 21012U   22106.81535943  .00000684  00000-0  64835-4 0  9991","MEAN_ANOMALY":"280.4585","ELEMENT_SET_NO":"999","LAUNCH_DATE":"2021-02-16","FILE":"3404767","SITE":"AFETR","PERIOD":"95.593","APOAPSIS":"548.205","BSTAR":"0.00006483500000","PERIAPSIS":"546.288","TIME_SYSTEM":"UTC","OBJECT_TYPE":"PAYLOAD","TLE_LINE2":"2 47638  53.0504 244.1657 0001384  79.6560 280.4585 15.06389249 66837","ECCENTRICITY":"0.00013840","RA_OF_ASC_NODE":"244.1657","CLASSIFICATION_TYPE":"U","INCLINATION":"53.0504","GP_ID":"201420867","SEMIMAJOR_AXIS":"6925.382","EPOCH":"2022-04-16T19:34:07.054752","REV_AT_EPOCH":"6683","MEAN_ELEMENT_THEORY":"SGP4"},{"MEAN_MOTION":"15.06365501","COUNTRY_CODE":"US","MEAN_MOTION_DOT":"-0.00015145","NORAD_CAT_ID":"47639","EPHEMERIS_TYPE":"0","DECAY_DATE":null,"OBJECT_ID":"2021-012V","RCS_SIZE":"LARGE","ARG_OF_PERICENTER":"69.8161","OBJECT_NAME":"STARLINK-2016","MEAN_MOTION_DDOT":"0.0000000000000","CENTER_NAME":"EARTH","REF_FRAME":"TEME","LAUNCH_DATE":"2021-02-16","ELEMENT_SET_NO":"999","MEAN_ANOMALY":"290.2991","TLE_LINE1":"1 47639U 21012V   22106.86188329 -.00015145  00000-0 -10009-2 0  9991","SITE":"AFETR","BSTAR":"-0.00100090000000","APOAPSIS":"548.369","PERIOD":"95.594","FILE":"3404382","ECCENTRICITY":"0.00015160","TIME_SYSTEM":"UTC","PERIAPSIS":"546.269","TLE_LINE2":"2 47639  53.0556 318.9410 0001516  69.8161 290.2991 15.06365501 65291","OBJECT_TYPE":"PAYLOAD","CLASSIFICATION_TYPE":"U","RA_OF_ASC_NODE":"318.9410","INCLINATION":"53.0556","GP_ID":"201389317","MEAN_ELEMENT_THEORY":"SGP4","SEMIMAJOR_AXIS":"6925.454","REV_AT_EPOCH":"6529","EPOCH":"2022-04-16T20:41:06.716256"},{"LAUNCH_DATE":"2021-02-16","ELEMENT_SET_NO":"999","MEAN_ANOMALY":"295.6798","TLE_LINE1":"1 47640U 21012W   22106.92270960 -.00000891  00000-0 -40908-4 0  9998","RCS_SIZE":"LARGE","ARG_OF_PERICENTER":"64.4349","OBJECT_NAME":"STARLINK-2018","MEAN_MOTION_DDOT":"0.0000000000000","CENTER_NAME":"EARTH","REF_FRAME":"TEME","EPHEMERIS_TYPE":"0","DECAY_DATE":null,"OBJECT_ID":"2021-012W","COUNTRY_CODE":"US","MEAN_MOTION":"15.06392141","MEAN_MOTION_DOT":"-0.00000891","NORAD_CAT_ID":"47640","MEAN_ELEMENT_THEORY":"SGP4","SEMIMAJOR_AXIS":"6925.373","EPOCH":"2022-04-16T22:08:42.109440","REV_AT_EPOCH":"6554","RA_OF_ASC_NODE":"338.6653","CLASSIFICATION_TYPE":"U","INCLINATION":"53.0551","GP_ID":"201419365","ECCENTRICITY":"0.00015340","PERIAPSIS":"546.175","TIME_SYSTEM":"UTC","TLE_LINE2":"2 47640  53.0551 338.6653 0001534  64.4349 295.6798 15.06392141 65547","OBJECT_TYPE":"PAYLOAD","SITE":"AFETR","BSTAR":"-0.00004090800000","PERIOD":"95.593","APOAPSIS":"548.300","FILE":"3404767"},{"ARG_OF_PERICENTER":"53.8902","OBJECT_NAME":"STARLINK-2019","RCS_SIZE":"LARGE","REF_FRAME":"TEME","MEAN_MOTION_DDOT":"0.0000000000000","CENTER_NAME":"EARTH","LAUNCH_DATE":"2021-02-16","ELEMENT_SET_NO":"999","MEAN_ANOMALY":"216.0691","TLE_LINE1":"1 47641U 21012X   22106.91668981  .00012012  00000-0  82506-3 0  9997","MEAN_MOTION":"15.06347403","COUNTRY_CODE":"US","NORAD_CAT_ID":"47641","MEAN_MOTION_DOT":"0.00012012","EPHEMERIS_TYPE":"0","OBJECT_ID":"2021-012X","DECAY_DATE":null,"GP_ID":"201420116","RA_OF_ASC_NODE":"243.6986","INCLINATION":"53.0556","CLASSIFICATION_TYPE":"U","MEAN_ELEMENT_THEORY":"SGP4","REV_AT_EPOCH":"359","EPOCH":"2022-04-16T22:00:01.999584","SEMIMAJOR_AXIS":"6925.510","BSTAR":"0.00082506000000","PERIOD":"95.595","APOAPSIS":"548.686","SITE":"AFETR","FILE":"3404767","ECCENTRICITY":"0.00018930","TLE_LINE2":"2 47641  53.0556 243.6986 0001893  53.8902 216.0691 15.06347403  3599","OBJECT_TYPE":"PAYLOAD","TIME_SYSTEM":"UTC","PERIAPSIS":"546.064"},{"TIME_SYSTEM":"UTC","PERIAPSIS":"546.357","OBJECT_TYPE":"PAYLOAD","TLE_LINE2":"2 47642  53.0521 333.6420 0001280  91.1579 268.9556 15.06390144 65606","ECCENTRICITY":"0.00012800","FILE":"3404767","SITE":"AFETR","PERIOD":"95.593","APOAPSIS":"548.130","BSTAR":"-0.00006043700000","SEMIMAJOR_AXIS":"6925.379","REV_AT_EPOCH":"6560","EPOCH":"2022-04-16T22:17:20.347872","MEAN_ELEMENT_THEORY":"SGP4","RA_OF_ASC_NODE":"333.6420","INCLINATION":"53.0521","CLASSIFICATION_TYPE":"U","GP_ID":"201420367","DECAY_DATE":null,"OBJECT_ID":"2021-012Y","EPHEMERIS_TYPE":"0","MEAN_MOTION_DOT":"-0.00001181","NORAD_CAT_ID":"47642","COUNTRY_CODE":"US","MEAN_MOTION":"15.06390144","TLE_LINE1":"1 47642U 21012Y   22106.92870773 -.00001181  00000-0 -60437-4 0  9990","MEAN_ANOMALY":"268.9556","LAUNCH_DATE":"2021-02-16","ELEMENT_SET_NO":"999","CENTER_NAME":"EARTH","MEAN_MOTION_DDOT":"0.0000000000000","REF_FRAME":"TEME","RCS_SIZE":"LARGE","OBJECT_NAME":"STARLINK-2020","ARG_OF_PERICENTER":"91.1579"},{"OBJECT_TYPE":"PAYLOAD","TLE_LINE2":"2 47643  53.0556 318.8770 0001758  60.8505 299.2660 15.06377388 65811","TIME_SYSTEM":"UTC","PERIAPSIS":"546.065","ECCENTRICITY":"0.00017580","FILE":"3404767","APOAPSIS":"548.500","PERIOD":"95.594","BSTAR":"-0.00043432000000","SITE":"AFETR","REV_AT_EPOCH":"6581","EPOCH":"2022-04-16T21:02:21.830784","SEMIMAJOR_AXIS":"6925.418","MEAN_ELEMENT_THEORY":"SGP4","GP_ID":"201420614","RA_OF_ASC_NODE":"318.8770","INCLINATION":"53.0556","CLASSIFICATION_TYPE":"U","OBJECT_ID":"2021-012Z","DECAY_DATE":null,"EPHEMERIS_TYPE":"0","NORAD_CAT_ID":"47643","MEAN_MOTION_DOT":"-0.00006741","MEAN_MOTION":"15.06377388","COUNTRY_CODE":"US","TLE_LINE1":"1 47643U 21012Z   22106.87664156 -.00006741  00000-0 -43432-3 0  9993","MEAN_ANOMALY":"299.2660","LAUNCH_DATE":"2021-02-16","ELEMENT_SET_NO":"999","REF_FRAME":"TEME","CENTER_NAME":"EARTH","MEAN_MOTION_DDOT":"0.0000000000000","OBJECT_NAME":"STARLINK-2022","ARG_OF_PERICENTER":"60.8505","RCS_SIZE":"LARGE"},{"MEAN_MOTION":"15.06369318","COUNTRY_CODE":"US","MEAN_MOTION_DOT":"-0.00009441","NORAD_CAT_ID":"47644","EPHEMERIS_TYPE":"0","DECAY_DATE":null,"OBJECT_ID":"2021-012AA","RCS_SIZE":"LARGE","ARG_OF_PERICENTER":"54.7175","OBJECT_NAME":"STARLINK-2026","MEAN_MOTION_DDOT":"0.0000000000000","CENTER_NAME":"EARTH","REF_FRAME":"TEME","LAUNCH_DATE":"2021-02-16","ELEMENT_SET_NO":"999","MEAN_ANOMALY":"305.3963","TLE_LINE1":"1 47644U 21012AA  22106.88953590 -.00009441  00000-0 -61625-3 0  9992","SITE":"AFETR","BSTAR":"-0.00061625000000","APOAPSIS":"548.415","PERIOD":"95.594","FILE":"3404767","ECCENTRICITY":"0.00015990","TIME_SYSTEM":"UTC","PERIAPSIS":"546.200","TLE_LINE2":"2 47644  53.0546 338.8198 0001599  54.7175 305.3963 15.06369318 65544","OBJECT_TYPE":"PAYLOAD","RA_OF_ASC_NODE":"338.8198","INCLINATION":"53.0546","CLASSIFICATION_TYPE":"U","GP_ID":"201419866","MEAN_ELEMENT_THEORY":"SGP4","SEMIMAJOR_AXIS":"6925.443","EPOCH":"2022-04-16T21:20:55.901760","REV_AT_EPOCH":"6554"},{"COUNTRY_CODE":"US","MEAN_MOTION":"15.06382210","NORAD_CAT_ID":"47645","MEAN_MOTION_DOT":"-0.00006482","EPHEMERIS_TYPE":"0","OBJECT_ID":"2021-012AB","DECAY_DATE":null,"ARG_OF_PERICENTER":"73.7384","OBJECT_NAME":"STARLINK-2027","RCS_SIZE":"LARGE","REF_FRAME":"TEME","MEAN_MOTION_DDOT":"0.0000000000000","CENTER_NAME":"EARTH","ELEMENT_SET_NO":"999","LAUNCH_DATE":"2021-02-16","MEAN_ANOMALY":"286.3743","TLE_LINE1":"1 47645U 21012AB  22106.82131747 -.00006482  00000-0 -41689-3 0  9999","BSTAR":"-0.00041689000000","PERIOD":"95.593","APOAPSIS":"548.137","SITE":"AFETR","FILE":"3404384","ECCENTRICITY":"0.00012550","TLE_LINE2":"2 47645  53.0536 309.1165 0001255  73.7384 286.3743 15.06382210 65428","OBJECT_TYPE":"PAYLOAD","TIME_SYSTEM":"UTC","PERIAPSIS":"546.399","GP_ID":"201389865","CLASSIFICATION_TYPE":"U","RA_OF_ASC_NODE":"309.1165","INCLINATION":"53.0536","MEAN_ELEMENT_THEORY":"SGP4","REV_AT_EPOCH":"6542","EPOCH":"2022-04-16T19:42:41.829408","SEMIMAJOR_AXIS":"6925.403"}];
